COSMOS 1892             
1 18421U 87088A   20236.41400392  .00000493  00000-0  23115-4 0  9995
2 18421  82.5001 207.2666 0014716 187.1746 172.9280 15.17200606794700
SL-14 R/B               
1 18749U 88001B   20236.55498351  .00000061  00000-0  44280-5 0  9999
2 18749  82.5140 294.7599 0020295  78.3131  36.1502 14.83224801741818
COSMOS 1933             
1 18958U 88020A   20236.60253438  .00000470  00000-0  32195-4 0  9998
2 18958  82.5275  60.7482 0010117 285.9190  74.0921 15.03752903745175
SL-3 R/B                
1 19046U 88032B   20236.58123445  .00000066  00000-0  92599-5 0  9997
2 19046  97.4030 254.6666 0036032 341.2901  18.6998 15.02749830747046
SL-16 R/B               
1 19120U 88039B   20236.56774416 -.00000116  00000-0 -32092-4 0  9994
2 19120  71.0142  26.7065 0023018 209.3281 150.6554 14.19207091671177
COSMOS 1953             
1 19210U 88050A   20236.55455200 -.00000145  00000-0 -11943-4 0  9997
2 19210  82.5189 344.6926 0011523 245.0666 114.9364 15.06006253731763
SL-8 R/B                
1 19257U 88053B   20236.46838231  .00000109  00000-0  45017-4 0  9997
2 19257  74.0467 237.7611 0020927 203.8125 267.4705 14.37479774685634
COSMOS 1975             
1 19573U 88093A   20236.57841911  .00000449  00000-0  29635-4 0  9998
2 19573  82.5196 299.1616 0012670 298.0896  61.9050 15.04910949713600
SL-14 R/B               
1 19574U 88093B   20236.49923211  .00000073  00000-0  59791-5 0  9994
2 19574  82.5336 137.3641 0020230 239.0037 293.9843 14.83335092700802
SL-16 R/B               
1 19650U 88102B   20236.60492421 -.00000146  00000-0 -49778-4 0  9993
2 19650  70.9996  88.7041 0015608 219.6300 140.3683 14.15793671640382
INTERCOSMOS 24          
1 20261U 89080A   20236.56075492  .00000085  00000-0  25087-4 0  9996
2 20261  82.6099 336.8531 1201753 293.0550  54.8339 12.56126395412019
SL-14 R/B               
1 20262U 89080C   20236.55132957  .00000070  00000-0  11482-4 0  9994
2 20262  82.5946  30.9374 1237655 124.1278 248.3530 12.48945052407363
DELTA 2 R/B(1)          
1 20303U 89085B   20236.59138463  .00001005  00000-0  34347-4 0  9991
2 20303  35.6316 308.6330 0093983  52.9851 307.9432 15.27524733678872
DELTA 1 R/B             
1 20323U 89089B   20236.37116803  .00000018  00000-0  13724-4 0  9996
2 20323  97.0995  11.5194 0072229  21.6837 338.7391 14.48355427602556
ARIANE 40 R/B           
1 20443U 90005H   20236.58491030 -.00000007  00000-0  12447-4 0  9990
2 20443  98.5709 298.2821 0011272 138.9958 221.2078 14.38096426601766
DELTA 2 R/B(1)          
1 20453U 90008B   20236.42600854  .00000271  00000-0  18585-4 0  9994
2 20453  35.6229 221.3649 0280093 144.1447 217.8420 14.85642293621161
COSMOS 2058             
1 20465U 90010A   20236.44568090  .00000151  00000-0  10467-4 0  9995
2 20465  82.4890 208.8768 0014848 341.3622  18.7055 14.98033345659461
SL-14 R/B               
1 20466U 90010B   20236.61737016  .00000075  00000-0  65096-5 0  9995
2 20466  82.5055   3.9148 0021926 115.1884 245.1607 14.81390672628673
SL-14 R/B               
1 20511U 90018B   20236.60485139  .00000084  00000-0  80502-5 0  9998
2 20511  82.5243 310.6113 0015965 256.5271 215.8299 14.80046313623045
HST                     
1 20580U 90037B   20236.41653219  .00000387  00000-0  12512-4 0  9991
2 20580  28.4686 236.7570 0002970  92.5988  54.0629 15.09420332466090
SL-16 R/B               
1 20625U 90046B   20236.39662232 -.00000253  00000-0 -10662-3 0  9990
2 20625  70.9954 227.6870 0012992 148.5854 211.6047 14.14654012562081
COSMOS 2084             
1 20663U 90055A   20236.53815011 -.00000057  00000-0  12389-4 0  9993
2 20663  62.7952 304.2019 0030049 292.4743  67.3170 14.92104848633362
SL-6 R/B(2)             
1 20666U 90055D   20236.51239934 -.00000062  00000-0  12316-4 0  9994
2 20666  62.7845 220.5537 0054630 354.9588   5.0948 14.92354951635304
SL-8 R/B                
1 20775U 90078B   20236.55722402  .00002840  00000-0  13760-3 0  9999
2 20775  82.9294 171.3022 0572566 346.9770  11.7133 14.34591291515365
SL-8 R/B                
1 21088U 91006B   20236.52873142 -.00000073  00000-0 -89285-4 0  9998
2 21088  82.9398 235.3403 0021373 305.6471 168.5785 13.77144891485442
OKEAN-3                 
1 21397U 91039A   20236.40430161  .00000128  00000-0  98450-5 0  9998
2 21397  82.5213 113.0665 0016635 309.1815  50.7927 14.92949247562256
COSMOS 2151             
1 21422U 91042A   20236.45086750  .00000158  00000-0  13016-4 0  9994
2 21422  82.4993 219.1524 0014566  15.8695 344.2978 14.92148792560878
SL-14 R/B               
1 21423U 91042B   20236.47273402  .00000026  00000-0  30991-6 0  9996
2 21423  82.4954 314.2687 0018644  43.2120 317.0551 14.79796480574612
ERS-1                   
1 21574U 91050A   20236.50483083  .00000038  00000-0  27234-4 0  9991
2 21574  98.6021 189.9031 0034193  87.6178 272.8923 14.37753856524750
ARIANE 40 R/B           
1 21610U 91050F   20236.47717590 -.00000003  00000-0  12757-4 0  9998
2 21610  98.4609 305.0309 0004269  68.9891 301.5160 14.40911314527637
INTERCOSMOS 25          
1 21819U 91086A   20236.58061467 -.00000229  00000-0 -53941-4 0  9996
2 21819  82.5847  86.1329 1516986 129.0054 245.6263 12.05135174252379
SL-8 R/B                
1 21876U 92008B   20236.57264937  .00000041  00000-0  26078-4 0  9991
2 21876  82.9300 332.5355 0035305  28.6443 342.7635 13.75656770431103
SL-8 R/B                
1 21938U 92020B   20236.48570964 -.00000077  00000-0 -95812-4 0  9997
2 21938  82.9293 216.7915 0029052 183.7083 324.6480 13.75278766422880
COSMOS 2219             
1 22219U 92076A   20236.51002682 -.00000272  00000-0 -11923-3 0  9999
2 22219  71.0602 287.6343 0016348  45.1746 315.0701 14.13650111432612
SL-16 R/B               
1 22220U 92076B   20236.47034118 -.00000140  00000-0 -46273-4 0  9996
2 22220  71.0010 130.5116 0014984 296.1018 236.5702 14.16460029435492
COSMOS 2221             
1 22236U 92080A   20236.53867218  .00000111  00000-0  93077-5 0  9991
2 22236  82.5072  40.2575 0018228  98.4928 261.8356 14.87941114500292
SL-16 R/B               
1 22285U 92093B   20236.52721188 -.00000153  00000-0 -54540-4 0  9992
2 22285  71.0216 291.8033 0003731 189.2618 170.8437 14.15049036426828
COSMOS 2228             
1 22286U 92094A   20236.48101035  .00000136  00000-0  11976-4 0  9997
2 22286  82.5227 356.6317 0020256 215.0479 144.9407 14.88158379474415
SL-16 R/B               
1 22566U 93016B   20236.48677058  .00000069  00000-0  60461-4 0  9994
2 22566  71.0089 145.0432 0009855 176.2441 183.8757 14.14968088415816
COSMOS 2242             
1 22626U 93024A   20236.46524550  .00000126  00000-0  10979-4 0  9999
2 22626  82.5224  24.7957 0018056 214.8637 145.1399 14.88014649478824
SL-16 R/B               
1 22803U 93059B   20236.61489444  .00000168  00000-0  10747-3 0  9991
2 22803  70.9917 317.7313 0015519  48.6091 311.6364 14.16826219392811
ARIANE 40 R/B           
1 22830U 93061H   20236.40609256 -.00000045  00000-0  15447-6 0  9996
2 22830  98.7596 286.2040 0011909 123.3142 236.9182 14.31454806404655
COSMOS 2278             
1 23087U 94023A   20236.60430297 -.00000104  00000-0 -29976-4 0  9996
2 23087  71.0542  87.2989 0010915 246.9853 113.0119 14.13816467358684
SL-16 R/B               
1 23088U 94023B   20236.50367239 -.00000151  00000-0 -53954-4 0  9996
2 23088  71.0028   0.3859 0002104 179.7123 180.4001 14.14692153359796
SL-16 R/B               
1 23343U 94074B   20236.44074987  .00000001  00000-0  75032-5 0  9998
2 23343  97.9934 288.8285 0005647 301.1402  62.8179 14.76833315388308
SL-16 R/B               
1 23405U 94077B   20236.56237142 -.00000086  00000-0 -19361-4 0  9994
2 23405  70.9821 289.3611 0003574 317.5747  42.5099 14.15218820329854
ERS-2                   
1 23560U 95021A   20236.49812088  .00000462  00000-0  23295-4 0  9993
2 23560  98.5490  39.2003 0002419 320.5516  39.5541 15.23257248352329
ARIANE 40+ R/B          
1 23561U 95021B   20236.11225420 -.00000007  00000-0  12719-4 0  9996
2 23561  98.7193 276.3096 0007891  61.9857 354.8507 14.37979300328154
SL-16 R/B               
1 23705U 95058B   20236.38542661  .00000078  00000-0  64636-4 0  9996
2 23705  71.0226 108.5230 0014020 317.7584  42.2458 14.15140165281743
SL-16 R/B               
1 24298U 96051B   20236.43721198 -.00000062  00000-0 -70497-5 0  9996
2 24298  70.8438 129.3271 0018925 252.5596 107.3455 14.12499049236077
ORBVIEW 2 (SEASTAR)     
1 24883U 97037A   20236.54491081  .00000038  00000-0  29742-4 0  9995
2 24883  98.6169 349.5140 0001193 259.8561 100.2489 14.33566468218586
SL-16 R/B               
1 25400U 98043G   20236.39715369 -.00000012  00000-0  13084-4 0  9995
2 25400  98.6085 171.0981 0010655 135.2049 224.9993 14.25459275150555
SL-16 R/B               
1 25407U 98045B   20236.38849416 -.00000253  00000-0 -10409-3 0  9999
2 25407  71.0116 116.9411 0009473 240.8553 119.1623 14.15828923140820
ISS (ZARYA)             
1 25544U 98067A   20236.71605324  .00000476  00000-0  16692-4 0  9996
2 25544  51.6468  14.2733 0001562  59.1231 129.6942 15.49180799242483
SL-8 R/B                
1 25723U 99022C   20236.50881496  .00019792  00000-0  12657-3 0  9997
2 25723  48.4123 355.3272 0006449 308.6049  51.4327 15.76209826188233
CZ-4B R/B               
1 25732U 99025C   20236.53276522 -.00000053  00000-0 -39287-5 0  9993
2 25732  98.9407 265.7184 0037677  20.9731  99.0588 14.17680051101322
OKEAN-O                 
1 25860U 99039A   20236.52654056  .00000010  00000-0  91350-5 0  9991
2 25860  98.2121 256.6849 0001605  70.8171 289.3212 14.76673833135411
SL-16 R/B               
1 25861U 99039B   20236.54105241 -.00000009  00000-0  63259-5 0  9997
2 25861  98.2094 240.0236 0014531 305.4907 165.8154 14.78587662137538
DELTA 2 R/B             
1 25876U 99041E   20236.47132296 -.00000021  00000-0  36884-4 0  9995
2 25876  51.7656  45.7645 0531399 179.4885 180.6696 14.04445156 78042
